STARLINK-36684          
1 68718U 26081V   26113.70528010 -.00769501  00000+0 -33568-2 0  9999
2 68718  53.1599 195.1911 0000750  54.5840 305.5255 15.85845812  1495
