{
  "norad_id": 68718,
  "name": "STARLINK-36684",
  "history": [
    {
      "epoch": "2026-04-23T16:55:36.200640Z",
      "apogee_km": 314.44656893302727,
      "perigee_km": 313.4418198625008,
      "latitude_deg": 1.1076974675014223e-05,
      "longitude_deg": 89.54159479643833,
      "height_km": 314.5735887230186,
      "semi_major_axis_km": 6692.081194397763,
      "eccentricity": 7.507e-05,
      "inclination_deg": 53.1599,
      "raan_deg": 195.1911,
      "arg_perigee_deg": 54.584,
      "mean_anomaly_deg": 305.5255,
      "mean_motion_rev_day": 15.85845812
    }
  ]
}